NORAD_CAT_ID,OBJECT_NAME,OBJECT_TYPE,EPOCH,MEAN_MOTION,ECCENTRICITY,INCLINATION,RA_OF_ASC_NODE,ARG_OF_PERICENTER,MEAN_ANOMALY,BSTAR,MEAN_MOTION_DOT,MEAN_MOTION_DDOT,TLE_LINE0,TLE_LINE1,TLE_LINE2,SEMIMAJOR_AXIS,PERIOD,APOGEE,PERIGEE,DECAYED
54793.0,STARLINK-5433,PAYLOAD,2024-06-21 01:57:44,15.08846362,0.0001141,53.2183,312.0868,85.5085,274.6037,2.414e-05,9.6e-07,0.0,0 STARLINK-5433,1 54793U 22175AM  24173.08176598  .00000096  00000-0  24140-4 0  9996,2 54793  53.2183 312.0868 0001141  85.5085 274.6037 15.08846362 83517,6917.861,95.437,540.515,538.937,0.0
54793.0,STARLINK-5433,PAYLOAD,2024-06-21 13:05:27,15.08834232,0.0001456,53.219,310.0081,104.1874,255.9279,5.3219e-05,5.59e-06,0.0,0 STARLINK-5433,1 54793U 22175AM  24173.54545554  .00000559  00000-0  53219-4 0  9992,2 54793  53.2190 310.0081 0001456 104.1874 255.9279 15.08834232 83583,6917.898,95.438,540.77,538.756,0.0
54793.0,STARLINK-5433,PAYLOAD,2024-06-21 14:40:50,15.08833459,0.0001421,53.2195,309.7111,104.0844,256.0307,4.5123e-05,4.3e-06,0.0,0 STARLINK-5433,1 54793U 22175AM  24173.61169649  .00000430  00000-0  45123-4 0  9990,2 54793  53.2195 309.7111 0001421 104.0844 256.0307 15.08833459 85750,6917.9,95.438,540.748,538.782,0.0
54793.0,STARLINK-5433,PAYLOAD,2024-06-22 14:31:37,15.08840335,0.0001301,53.2192,305.2476,102.0472,258.0666,3.4976e-05,2.69e-06,0.0,0 STARLINK-5433,1 54793U 22175AM  24174.60529519  .00000269  00000-0  34976-4 0  9990,2 54793  53.2192 305.2476 0001301 102.0472 258.0666 15.08840335 85902,6917.879,95.438,540.644,538.844,0.0
54793.0,STARLINK-5433,PAYLOAD,2024-06-22 19:17:46,15.08844104,0.0001272,53.2191,304.3543,97.9809,262.1328,7.0676e-05,8.37e-06,0.0,0 STARLINK-5433,1 54793U 22175AM  24174.80401243  .00000837  00000-0  70676-4 0  9993,2 54793  53.2191 304.3543 0001272  97.9809 262.1328 15.08844104 83771,6917.868,95.437,540.613,538.853,0.0
54793.0,STARLINK-5433,PAYLOAD,2024-06-23 12:47:02,15.08806006,0.000108,53.2185,301.0828,95.2463,264.8653,0.00050952,7.823e-05,0.0,0 STARLINK-5433,1 54793U 22175AM  24175.53267024  .00007823  00000-0  50952-3 0  9997,2 54793  53.2185 301.0828 0001080  95.2463 264.8653 15.08806006 83889,6917.984,95.44,540.596,539.102,0.0
54793.0,STARLINK-5433,PAYLOAD,2024-06-23 14:22:24,15.08836606,0.0001242,53.2182,300.7854,92.4517,267.6617,7.9575e-05,9.79e-06,0.0,0 STARLINK-5433,1 54793U 22175AM  24175.59889875  .00000979  00000-0  79575-4 0  9995,2 54793  53.2182 300.7854 0001242  92.4517 267.6617 15.08836606 86052,6917.891,95.438,540.615,538.897,0.0
54793.0,STARLINK-5433,PAYLOAD,2024-06-23 17:33:10,15.08836044,0.0001117,53.2189,300.1904,72.7702,287.3413,0.0002187,3.194e-05,0.0,0 STARLINK-5433,1 54793U 22175AM  24175.73137675  .00003194  00000-0  21870-3 0  9991,2 54793  53.2189 300.1904 0001117  72.7702 287.3413 15.08836044 83918,6917.892,95.438,540.53,538.985,0.0
54793.0,STARLINK-5433,PAYLOAD,2024-06-24 14:13:11,15.08840974,0.0001289,53.2176,296.3251,92.0822,268.0318,4.3588e-05,4.06e-06,0.0,0 STARLINK-5433,1 54793U 22175AM  24176.59249811  .00000406  00000-0  43588-4 0  9996,2 54793  53.2176 296.3251 0001289  92.0822 268.0318 15.08840974 86205,6917.877,95.437,540.634,538.851,0.0
54793.0,STARLINK-5433,PAYLOAD,2024-06-24 15:48:34,15.08844219,0.0001209,53.2177,296.0277,92.0989,268.0142,6.4507e-05,7.39e-06,0.0,0 STARLINK-5433,1 54793U 22175AM  24176.65873512  .00000739  00000-0  64507-4 0  9997,2 54793  53.2177 296.0277 0001209  92.0989 268.0142 15.08844219 86219,6917.867,95.437,540.569,538.896,0.0
54793.0,STARLINK-5433,PAYLOAD,2024-06-25 12:28:35,15.08848744,0.0001205,53.2178,292.1635,95.4037,264.7093,2.1297e-05,5.1e-07,0.0,0 STARLINK-5433,1 54793U 22175AM  24177.51985380  .00000051  00000-0  21297-4 0  9996,2 54793  53.2178 292.1635 0001205  95.4037 264.7093 15.08848744 84181,6917.854,95.437,540.552,538.885,0.0
54793.0,STARLINK-5433,PAYLOAD,2024-06-25 14:03:58,15.08848767,0.0001298,53.2179,291.8668,82.3583,277.7556,5.5852e-05,6.01e-06,0.0,0 STARLINK-5433,1 54793U 22175AM  24177.58609326  .00000601  00000-0  55852-4 0  9991,2 54793  53.2179 291.8668 0001298  82.3583 277.7556 15.08848767 86351,6917.854,95.437,540.617,538.821,0.0
54793.0,STARLINK-5433,PAYLOAD,2024-06-26 10:43:58,15.08847525,0.0001273,53.2172,287.9994,91.5994,268.5143,7.8948e-05,9.69e-06,0.0,0 STARLINK-5433,1 54793U 22175AM  24178.44721038  .00000969  00000-0  78948-4 0  9990,2 54793  53.2172 287.9994 0001273  91.5994 268.5143 15.08847525 86488,6917.857,95.437,540.603,538.842,0.0
54793.0,STARLINK-5433,PAYLOAD,2024-06-27 13:45:32,15.08845993,0.000132,53.2176,282.9473,92.056,268.0583,2.0725e-05,4.2e-07,0.0,0 STARLINK-5433,1 54793U 22175AM  24179.57329057  .00000042  00000-0  20725-4 0  9992,2 54793  53.2176 282.9473 0001320  92.0560 268.0583 15.08845993 84496,6917.862,95.437,540.64,538.814,0.0
54793.0,STARLINK-5433,PAYLOAD,2024-06-28 13:36:18,15.08850887,0.0001219,53.2165,278.4858,96.5857,263.5274,0.00014276,1.986e-05,0.0,0 STARLINK-5433,1 54793U 22175AM  24180.56688434  .00001986  00000-0  14276-3 0  9991,2 54793  53.2165 278.4858 0001219  96.5857 263.5274 15.08850887 86808,6917.847,95.437,540.555,538.869,0.0
54793.0,STARLINK-5433,PAYLOAD,2024-06-28 15:11:41,15.08854015,0.000127,53.217,278.1862,89.8226,270.2911,0.00018971,2.734e-05,0.0,0 STARLINK-5433,1 54793U 22175AM  24180.63312112  .00002734  00000-0  18971-3 0  9994,2 54793  53.2170 278.1862 0001270  89.8226 270.2911 15.08854015 84659,6917.838,95.437,540.581,538.824,0.0
54793.0,STARLINK-5433,PAYLOAD,2024-06-28 23:08:37,15.08850622,0.00013,53.2173,276.6995,86.9262,273.1879,0.00011399,1.527e-05,0.0,0 STARLINK-5433,1 54793U 22175AM  24180.96432369  .00001527  00000-0  11399-3 0  9993,2 54793  53.2173 276.6995 0001300  86.9262 273.1879 15.08850622 84705,6917.848,95.437,540.612,538.814,0.0
54793.0,STARLINK-5433,PAYLOAD,2024-06-29 13:27:06,15.08841278,0.0001419,53.2175,274.0291,101.0655,259.0496,4.0897e-05,3.63e-06,0.0,0 STARLINK-5433,1 54793U 22175AM  24181.56049074  .00000363  00000-0  40897-4 0  9990,2 54793  53.2175 274.0291 0001419 101.0655 259.0496 15.08841278 84798,6917.876,95.437,540.723,538.76,0.0
54793.0,STARLINK-5433,PAYLOAD,2024-06-30 05:20:58,15.08837121,0.000142,53.2176,271.0559,102.3986,257.7165,-8.7524e-05,-1.681e-05,0.0,0 STARLINK-5433,1 54793U 22175AM  24182.22290066 -.00001681  00000-0 -87524-4 0  9997,2 54793  53.2176 271.0559 0001420 102.3986 257.7165 15.08837121 84897,6917.889,95.438,540.737,538.772,0.0
54793.0,STARLINK-5433,PAYLOAD,2024-06-30 10:07:08,15.08830143,0.0001298,53.2168,270.1623,97.0809,263.033,-0.00018162,-3.176e-05,0.0,0 STARLINK-5433,1 54793U 22175AM  24182.42162917 -.00003176  00000-0 -18162-3 0  9994,2 54793  53.2168 270.1623 0001298  97.0809 263.0330 15.08830143 84922,6917.911,95.438,540.673,538.878,0.0
54793.0,STARLINK-5433,PAYLOAD,2024-06-30 11:42:31,15.08832266,0.0001605,53.2178,269.8622,92.142,267.9756,-0.00015399,-2.737e-05,0.0,0 STARLINK-5433,1 54793U 22175AM  24182.48786802 -.00002737  00000-0 -15399-3 0  9996,2 54793  53.2178 269.8622 0001605  92.1420 267.9756 15.08832266 87098,6917.904,95.438,540.879,538.659,0.0
54793.0,STARLINK-5433,PAYLOAD,2024-07-01 05:11:46,15.08829688,0.000148,53.2174,266.5894,73.5121,286.6033,4.75e-05,4.68e-06,0.0,0 STARLINK-5433,1 54793U 22175AM  24183.21650525  .00000468  00000-0  47500-4 0  9997,2 54793  53.2174 266.5894 0001480  73.5121 286.6033 15.08829688 85044,6917.912,95.438,540.801,538.753,0.0
54793.0,STARLINK-5433,PAYLOAD,2024-07-01 13:08:40,15.08849391,0.0001152,53.2159,265.1009,77.5231,282.589,5.3175e-05,5.59e-06,0.0,0 STARLINK-5433,1 54793U 22175AM  24183.54769297  .00000559  00000-0  53175-4 0  9996,2 54793  53.2159 265.1009 0001152  77.5231 282.5890 15.08849391 85096,6917.852,95.437,540.514,538.92,0.0
54793.0,STARLINK-5433,PAYLOAD,2024-07-01 14:44:03,15.0885035,0.0001145,53.2159,264.8033,77.5448,282.5672,5.7271e-05,6.24e-06,0.0,0 STARLINK-5433,1 54793U 22175AM  24183.61393196  .00000624  00000-0  57271-4 0  9999,2 54793  53.2159 264.8033 0001145  77.5448 282.5672 15.08850350 87267,6917.849,95.437,540.506,538.922,0.0
54793.0,STARLINK-5433,PAYLOAD,2024-07-02 05:02:33,15.08820931,9.44e-05,53.213,262.1261,97.7578,262.3522,0.00024241,3.57e-05,0.0,0 STARLINK-5433,1 54793U 22175AM  24184.21010683  .00003570  00000-0  24241-3 0  9996,2 54793  53.2130 262.1261 0000944  97.7578 262.3522 15.08820931 85196,6917.939,95.439,540.457,539.151,0.0
54793.0,STARLINK-5433,PAYLOAD,2024-07-02 09:48:42,15.08831536,0.0001581,53.2132,261.2362,89.6692,270.4481,0.00014635,2.041e-05,0.0,0 STARLINK-5433,1 54793U 22175AM  24184.40882595  .00002041  00000-0  14635-3 0  9994,2 54793  53.2132 261.2362 0001581  89.6692 270.4481 15.08831536 87385,6917.906,95.438,540.865,538.678,0.0
54793.0,STARLINK-5433,PAYLOAD,2024-07-03 11:14:52,15.0883979,0.0001288,53.2153,256.4801,81.6261,278.4877,7.3174e-05,8.77e-06,0.0,0 STARLINK-5433,1 54793U 22175AM  24185.46866454  .00000877  00000-0  73174-4 0  9996,2 54793  53.2153 256.4801 0001288  81.6261 278.4877 15.08839790 85385,6917.881,95.438,540.637,538.855,0.0
54793.0,STARLINK-5433,PAYLOAD,2024-07-03 22:22:34,15.08842978,0.0001289,53.2155,254.3973,94.643,265.4709,-9.9352e-06,-4.46e-06,0.0,0 STARLINK-5433,1 54793U 22175AM  24185.93234312 -.00000446  00000-0 -99352-5 0  9991,2 54793  53.2155 254.3973 0001289  94.6430 265.4709 15.08842978 87617,6917.871,95.437,540.628,538.845,0.0
54793.0,STARLINK-5433,PAYLOAD,2024-07-04 14:16:25,15.08843587,0.0001454,53.2169,251.4228,104.8105,255.3048,3.1343e-05,2.11e-06,0.0,0 STARLINK-5433,1 54793U 22175AM  24186.59474197  .00000211  00000-0  31343-4 0  9994,2 54793  53.2169 251.4228 0001454 104.8105 255.3048 15.08843587 87712,6917.869,95.437,540.74,538.729,0.0
54793.0,STARLINK-5433,PAYLOAD,2024-07-05 10:56:26,15.08845729,0.0001236,53.2156,247.5586,86.8059,273.3074,6.7797e-05,7.91e-06,0.0,0 STARLINK-5433,1 54793U 22175AM  24187.45585976  .00000791  00000-0  67797-4 0  9993,2 54793  53.2156 247.5586 0001236  86.8059 273.3074 15.08845729 87849,6917.863,95.437,540.583,538.873,0.0
